{
  "type": "FeatureCollection",
  "features": [
    {"type":"Feature","properties":{"kind":"road","name":"福祉センター筋","role":"gap-fix-20260910"},"geometry":{"type":"LineString","coordinates":[[135.3458804,34.730197],[135.3460913,34.7308818]]}},
    {"type":"Feature","properties":{"kind":"road","name":"用海筋","role":"gap-fix-20260910"},"geometry":{"type":"LineString","coordinates":[[135.3418791,34.7278683],[135.3419878,34.7283697]]}},
    {"type":"Feature","properties":{"kind":"rail","name":"阪神武庫川線","role":"mlit-n02-2025"},"geometry":{"type":"LineString","coordinates":[[135.38141,34.71865],[135.38104,34.71805]]}},
    {"type":"Feature","properties":{"kind":"rail","name":"阪神武庫川線","role":"mlit-n02-2025"},"geometry":{"type":"LineString","coordinates":[[135.38104,34.71805],[135.38044,34.71705],[135.37999,34.7161],[135.37972,34.71539],[135.37954,34.71484],[135.37937,34.71426],[135.37929,34.71383],[135.3792,34.71305]]}},
    {"type":"Feature","properties":{"kind":"rail","name":"阪神武庫川線","role":"mlit-n02-2025"},"geometry":{"type":"LineString","coordinates":[[135.3792,34.71305],[135.3791,34.71239]]}},
    {"type":"Feature","properties":{"kind":"rail","name":"阪神武庫川線","role":"mlit-n02-2025"},"geometry":{"type":"LineString","coordinates":[[135.3791,34.71239],[135.37902,34.7119],[135.37883,34.71118],[135.37867,34.71061],[135.37855,34.71032],[135.3781,34.70931]]}},
    {"type":"Feature","properties":{"kind":"rail","name":"阪神武庫川線","role":"mlit-n02-2025"},"geometry":{"type":"LineString","coordinates":[[135.3781,34.70931],[135.37782,34.70869]]}},
    {"type":"Feature","properties":{"kind":"rail","name":"阪神武庫川線","role":"mlit-n02-2025"},"geometry":{"type":"LineString","coordinates":[[135.37782,34.70869],[135.37753,34.70801],[135.37731,34.70754],[135.37718,34.70735],[135.37701,34.70716],[135.37606,34.70658],[135.37577,34.70638],[135.37557,34.7062],[135.37537,34.70592],[135.375,34.70523]]}},
    {"type":"Feature","properties":{"kind":"rail","name":"阪神武庫川線","role":"mlit-n02-2025"},"geometry":{"type":"LineString","coordinates":[[135.375,34.70523],[135.37471,34.70464]]}}
  ]
}
