{"type":"FeatureCollection","features":[{"type":"Feature","properties":{"kind":"water","name":"金仙寺湖","osm_type":"way","osm_id":56238984},"geometry":{"type":"Polygon","coordinates":[[[135.2622419,34.8215163],[135.2623794,34.8214939],[135.2625819,34.8214939],[135.2628133,34.8215178],[135.2629869,34.8215475],[135.26324,34.8215475],[135.2634497,34.8214997],[135.2630592,34.8214642],[135.2628711,34.8214283],[135.262517,34.8213686],[135.2623361,34.8213567],[135.2615261,34.8214222],[135.2614756,34.8214164],[135.2614683,34.8213686],[135.2614972,34.8213089],[135.26149,34.8212731],[135.2614106,34.8212553],[135.2612372,34.8212553],[135.2611575,34.8212372],[135.2608828,34.8212136],[135.2607528,34.8212314],[135.2606586,34.8212672],[135.2605358,34.8213686],[135.2604128,34.8214045],[135.2602319,34.8214283],[135.260102,34.8214642],[135.2599644,34.8215236],[135.2597764,34.8216908],[135.259415,34.8219711],[135.2591908,34.8221797],[135.258945,34.8223289],[135.2587425,34.8224422],[135.2579036,34.822815],[135.2573181,34.8230297],[135.2569494,34.8231133],[135.2566817,34.8231489],[135.2565083,34.8231311],[135.2563708,34.8230833],[135.256255,34.823],[135.2561828,34.8229222],[135.2561611,34.8228389],[135.256125,34.8226717],[135.2560672,34.822487],[135.2560092,34.8223197],[135.2559875,34.822135],[135.2559875,34.8219503],[135.2559875,34.8217981],[135.2559658,34.821655],[135.2559369,34.8214283],[135.2559153,34.8211419],[135.2559153,34.820957],[135.2559097,34.8207042],[135.2559008,34.8203008],[135.2558719,34.819812],[135.2557417,34.819812],[135.2556622,34.8198058],[135.2555825,34.8197583],[135.2555753,34.8197106],[135.2555753,34.8195972],[135.2555467,34.8195256],[135.255525,34.8194658],[135.2555322,34.8193883],[135.2555828,34.8193286],[135.2557272,34.819275],[135.2558067,34.8192511],[135.2558647,34.8192214],[135.255908,34.8191617],[135.2559947,34.8190603],[135.2560817,34.8190036],[135.2561106,34.81895],[135.2561683,34.8189022],[135.2562697,34.8188186],[135.2563564,34.818777],[135.2564286,34.8187947],[135.25653,34.8188008],[135.2565878,34.8187828],[135.2566167,34.8187469],[135.256595,34.8186994],[135.2564214,34.8186158],[135.2563708,34.8185561],[135.2563492,34.8184728],[135.2563492,34.8182161],[135.2563708,34.8181506],[135.2564286,34.8180969],[135.2565444,34.8180492],[135.2566311,34.8179895],[135.2567033,34.817912],[135.2567253,34.8178583],[135.2566817,34.8178464],[135.2565733,34.8178939],[135.2564575,34.8179655],[135.2563058,34.8180372],[135.2561828,34.8180731],[135.2561394,34.8180908],[135.256125,34.8181444],[135.2561394,34.8181983],[135.2561683,34.8183236],[135.2561683,34.8184547],[135.2561394,34.8185742],[135.2560456,34.8187114],[135.2558575,34.8188961],[135.2555975,34.8190781],[135.2554528,34.8191439],[135.2553008,34.8192392],[135.2552142,34.8193347],[135.2551272,34.8194181],[135.2550478,34.8196269],[135.2549972,34.8198],[135.25499,34.8199428],[135.25499,34.8201397],[135.2550044,34.8203306],[135.2549683,34.8206289],[135.2549467,34.82079],[135.2549103,34.8208617],[135.2547875,34.8210167],[135.2547514,34.8211122],[135.2547442,34.8212017],[135.2547514,34.821315],[135.2547731,34.8214403],[135.2547731,34.8215714],[135.2547514,34.8217683],[135.254691,34.8218865],[135.2546022,34.8219976],[135.2545647,34.8220997],[135.2545204,34.8222951],[135.2545293,34.822331],[135.2546275,34.8224058],[135.2546456,34.8224503],[135.2545016,34.8229619],[135.2545294,34.8229776],[135.2545501,34.82297],[135.2545816,34.8229777],[135.2546236,34.8230054],[135.2546417,34.8230526],[135.2546733,34.8230674],[135.2546763,34.8230894],[135.2546457,34.8231099],[135.2546547,34.8231574],[135.2546138,34.8233605],[135.2545758,34.8234093],[135.2545306,34.8234308],[135.2544745,34.8234441],[135.2543875,34.8234323],[135.2543502,34.8234359],[135.2543231,34.8234515],[135.2543041,34.8234803],[135.2542018,34.8239756],[135.254126,34.8243174],[135.2540475,34.8246887],[135.253996,34.824899],[135.2539995,34.8250117],[135.2540446,34.8251111],[135.2541713,34.8252037],[135.2542824,34.8252419],[135.2542914,34.8252969],[135.2542635,34.8253301],[135.2542278,34.8253733],[135.2542334,34.8254162],[135.254302,34.8254881],[135.2543881,34.8256033],[135.2544613,34.8256685],[135.2545501,34.8257094],[135.2547826,34.8256986],[135.2549259,34.8257943],[135.2549827,34.8258738],[135.2550801,34.8259144],[135.2551722,34.825864],[135.2552556,34.8258993],[135.2552873,34.8258795],[135.2555009,34.8260933],[135.2555972,34.8262094],[135.2558209,34.8263991],[135.2559,34.8264934],[135.2561615,34.8265035],[135.2564969,34.8265165],[135.2564819,34.8263385],[135.2565409,34.8262843],[135.2565389,34.8262158],[135.256491,34.8261698],[135.256472,34.8260956],[135.2565124,34.8260498],[135.256521,34.8259641],[135.2564358,34.8259286],[135.2563781,34.8257675],[135.256276,34.8256691],[135.2561388,34.8256373],[135.2560026,34.8255702],[135.2559122,34.8254989],[135.2558854,34.8254151],[135.255854,34.8253318],[135.2558481,34.8252935],[135.2558821,34.8252714],[135.2560736,34.8252906],[135.2563931,34.8253099],[135.2565684,34.825335],[135.2567372,34.8252789],[135.2568042,34.825146],[135.2568674,34.8251501],[135.2570786,34.8251202],[135.2572519,34.8251005],[135.2573586,34.8251267],[135.2574511,34.8251666],[135.2574892,34.8252454],[135.2574915,34.8253085],[135.2576719,34.8253114],[135.2576699,34.8252419],[135.2577636,34.8251805],[135.2577364,34.8251033],[135.2577733,34.8250397],[135.2579288,34.8250099],[135.2580624,34.825022],[135.2581571,34.8249764],[135.2582379,34.8249137],[135.2582676,34.824833],[135.2583201,34.8247903],[135.2584788,34.82471],[135.2585284,34.8246266],[135.2586554,34.8245388],[135.2587704,34.8244502],[135.2587956,34.8243801],[135.2587624,34.8243258],[135.2587711,34.8242441],[135.2588267,34.8241497],[135.2589422,34.824053],[135.2590065,34.8239627],[135.2590334,34.8239012],[135.2591747,34.8238462],[135.2593588,34.8238318],[135.2595288,34.8238396],[135.2596776,34.8238175],[135.2597239,34.8237726],[135.2597093,34.8236794],[135.259726,34.8236144],[135.259741,34.8235634],[135.2597975,34.8235221],[135.2598557,34.8235246],[135.2599562,34.8235522],[135.2599934,34.8235489],[135.2600096,34.8235369],[135.260151,34.8235197],[135.2602259,34.8234645],[135.2603163,34.8234211],[135.260273,34.8233248],[135.260355,34.8232117],[135.2604561,34.8231222],[135.2604633,34.8230864],[135.2604561,34.8230089],[135.260485,34.822967],[135.260538,34.8228514],[135.2606399,34.8227602],[135.2608133,34.8226739],[135.2610583,34.8225317],[135.2613597,34.8223659],[135.2618679,34.8220614],[135.2621657,34.8219103],[135.2622014,34.8218145],[135.2621824,34.8217164],[135.2621514,34.8216564],[135.2622626,34.8216624],[135.2624521,34.8217447],[135.2625199,34.821792],[135.2625807,34.8217984],[135.2625681,34.8217579],[135.2624878,34.8216937],[135.2624882,34.8216699],[135.2623987,34.8216479],[135.2622928,34.8216093],[135.2622419,34.8215163]]]}},{"type":"Feature","properties":{"kind":"water","name":"弁天池","osm_type":"way","osm_id":110536806},"geometry":{"type":"Polygon","coordinates":[[[135.3557136,34.7767861],[135.3557853,34.7766448],[135.3559344,34.7763513],[135.3560493,34.7761438],[135.3560727,34.7761015],[135.3559857,34.7760319],[135.3559988,34.7758114],[135.3559546,34.7757957],[135.3557315,34.7757849],[135.35566,34.7758065],[135.3556158,34.775928],[135.3556063,34.7760329],[135.3555812,34.7761279],[135.3556146,34.7761916],[135.3555776,34.7762367],[135.3554977,34.7762563],[135.3554512,34.7762406],[135.3550945,34.7759525],[135.3550503,34.7758839],[135.3549788,34.7755272],[135.3548917,34.7752715],[135.3547903,34.7751509],[135.35469,34.7750079],[135.3546053,34.774954],[135.3545493,34.7749491],[135.3544669,34.7749892],[135.3544562,34.7750353],[135.3544455,34.7753626],[135.3544562,34.7756125],[135.3544586,34.7758702],[135.3544622,34.7760358],[135.3545004,34.7761416],[135.3545075,34.7762191],[135.3545004,34.7762602],[135.3544658,34.7763347],[135.3543989,34.7763798],[135.3543441,34.7764258],[135.3543083,34.7764846],[135.354313,34.7765366],[135.3543274,34.7766032],[135.3543441,34.7766287],[135.3543154,34.7767169],[135.3542665,34.7767512],[135.354288,34.7768746],[135.3542986,34.776898],[135.3543178,34.7769403],[135.3542999,34.7769628],[135.3541926,34.7769922],[135.354176,34.776976],[135.354139,34.7769202],[135.3541007,34.7769142],[135.3540513,34.7769375],[135.3540315,34.776973],[135.3540686,34.7770024],[135.3541056,34.7770562],[135.3540958,34.7772823],[135.3541353,34.7773107],[135.3542229,34.777327],[135.3542625,34.7773462],[135.3542896,34.777475],[135.3543109,34.7774933],[135.3543467,34.777592],[135.3543403,34.7776109],[135.3543569,34.7776227],[135.3543786,34.7776382],[135.3544425,34.7775889],[135.3546739,34.7774964],[135.3547596,34.7774765],[135.354812,34.777425],[135.3548465,34.7773778],[135.3550753,34.7772707],[135.3551009,34.7772413],[135.3551373,34.7771603],[135.3551838,34.7770919],[135.3552868,34.7770269],[135.3553642,34.7770064],[135.3554338,34.7769999],[135.3554678,34.7769809],[135.3555822,34.7768494],[135.3556178,34.7768189],[135.355677,34.7768046],[135.3557136,34.7767861]]]}},{"type":"Feature","properties":{"kind":"water","name":"ニテコ池","osm_type":"way","osm_id":186694983},"geometry":{"type":"Polygon","coordinates":[[[135.3337522,34.7484444],[135.3339775,34.7485942],[135.3341283,34.7487785],[135.3342028,34.7491849],[135.3342123,34.7497064],[135.3342136,34.7497755],[135.3346218,34.7498892],[135.3346964,34.7497226],[135.3346427,34.7489997],[135.3346642,34.7487353],[135.3348511,34.7484368],[135.3348533,34.7483562],[135.3337522,34.7484444]]]}},{"type":"Feature","properties":{"kind":"water","name":"ニテコ池","osm_type":"way","osm_id":186695043},"geometry":{"type":"Polygon","coordinates":[[[135.3334411,34.7505953],[135.3340424,34.7507972],[135.334117,34.7506041],[135.3342994,34.7504631],[135.3347076,34.7501801],[135.3346534,34.7501193],[135.3339453,34.7498813],[135.3337844,34.7499959],[135.3337629,34.7501369],[135.3334411,34.7505953]]]}},{"type":"Feature","properties":{"kind":"water","name":"ニテコ池","osm_type":"way","osm_id":186695107},"geometry":{"type":"Polygon","coordinates":[[[135.3333338,34.7508157],[135.333109,34.751141],[135.3332265,34.7515385],[135.333602,34.7516972],[135.3338386,34.7518726],[135.3340741,34.7519528],[135.3342457,34.751944],[135.3342887,34.7516884],[135.3341492,34.7512917],[135.3339781,34.7509558],[135.3333338,34.7508157]]]}},{"type":"Feature","properties":{"kind":"water","name":"片鉾池","osm_type":"way","osm_id":186695811},"geometry":{"type":"Polygon","coordinates":[[[135.3281628,34.739523],[135.3280877,34.7398096],[135.3280624,34.7399361],[135.3279509,34.7399286],[135.3279214,34.7400477],[135.3276371,34.7400124],[135.3276024,34.7402061],[135.3278784,34.7402405],[135.3278832,34.7403474],[135.3280397,34.7403637],[135.3280179,34.7403909],[135.3277443,34.7403871],[135.3275834,34.740343],[135.3275137,34.7402724],[135.3274225,34.7401799],[135.3274171,34.740127],[135.3274764,34.7400066],[135.3275137,34.7398757],[135.3275727,34.7397523],[135.3276585,34.7396509],[135.3276961,34.7395671],[135.3278302,34.7394701],[135.3279055,34.7395085],[135.3280662,34.7394966],[135.3281628,34.739523]]]}},{"type":"Feature","properties":{"kind":"water","name":"仲ノ池","osm_type":"way","osm_id":275975808},"geometry":{"type":"Polygon","coordinates":[[[135.3144579,34.7418045],[135.314595,34.7418538],[135.314698,34.7419491],[135.3146722,34.7420974],[135.3147667,34.7423446],[135.3146808,34.7425917],[135.3146636,34.7427683],[135.3145605,34.7429025],[135.3143112,34.7428601],[135.3142339,34.7427612],[135.3142253,34.7424576],[135.3142339,34.7423446],[135.3141393,34.7422881],[135.314062,34.7422457],[135.3140448,34.7421327],[135.3140095,34.7420698],[135.3139932,34.7418431],[135.3144579,34.7418045]]]}},{"type":"Feature","properties":{"kind":"water","name":"五ヶ池","osm_type":"way","osm_id":401325877},"geometry":{"type":"Polygon","coordinates":[[[135.3332686,34.7812716],[135.3332746,34.781211],[135.3332877,34.781165],[135.3332813,34.781081],[135.3332646,34.7810612],[135.3332049,34.7810447],[135.3330138,34.781038],[135.3330111,34.7810072],[135.3330299,34.7809901],[135.3330647,34.7809731],[135.3330634,34.7809384],[135.3330319,34.7809097],[135.3330399,34.780821],[135.3330956,34.780761],[135.3330936,34.7807081],[135.3331613,34.780647],[135.3331673,34.7806057],[135.333158,34.780582],[135.3330956,34.7805214],[135.3330976,34.7804675],[135.3330708,34.7804267],[135.3329803,34.7804069],[135.3329675,34.7803849],[135.333048,34.7803347],[135.333054,34.7803105],[135.3330413,34.780256],[135.33305,34.7801662],[135.3331432,34.7801249],[135.3331975,34.7800819],[135.3332096,34.7799674],[135.3332766,34.779936],[135.3332921,34.779893],[135.3333377,34.7798914],[135.333398,34.779904],[135.3335133,34.7798754],[135.3336039,34.7798859],[135.3337306,34.7798721],[135.3337266,34.779828],[135.333689,34.7797807],[135.333691,34.7797465],[135.3337628,34.77973],[135.3338225,34.779725],[135.3338298,34.7797399],[135.3338969,34.7797658],[135.3339552,34.7797399],[135.3339566,34.7797036],[135.3339774,34.7796534],[135.3340954,34.7796226],[135.3342,34.7796132],[135.3343151,34.7795704],[135.334597,34.7795863],[135.3346305,34.7795967],[135.3346211,34.7796375],[135.3350456,34.7803325],[135.3349651,34.7804366],[135.3348672,34.7805303],[135.3347854,34.7805523],[135.3347291,34.7805473],[135.3346908,34.7805258],[135.3346211,34.7805126],[135.3344608,34.7803937],[135.3343844,34.7803937],[135.3342208,34.7804284],[135.3341276,34.780495],[135.3341168,34.78062],[135.33408,34.7806437],[135.333854,34.7806558],[135.3337963,34.7806872],[135.3337608,34.7807335],[135.3337514,34.7808056],[135.3337856,34.7808502],[135.3338339,34.7808679],[135.3338513,34.780891],[135.3338453,34.7809257],[135.3338191,34.7809428],[135.3337641,34.7809505],[135.3337185,34.7809725],[135.3336776,34.7809428],[135.3336515,34.7809373],[135.3336045,34.7809329],[135.3335589,34.7809648],[135.3335536,34.7810276],[135.3335388,34.7810447],[135.3334966,34.7810276],[135.3334637,34.7810254],[135.3334389,34.7810469],[135.3334423,34.7811245],[135.3333859,34.7811256],[135.333345,34.7811529],[135.3333269,34.7811746],[135.3333353,34.7812002],[135.3333491,34.7812154],[135.3333356,34.7812473],[135.3333038,34.7812548],[135.3332907,34.781274],[135.3332686,34.7812716]]]}},{"type":"Feature","properties":{"kind":"water","name":"甲陽大池","osm_type":"way","osm_id":436393562},"geometry":{"type":"Polygon","coordinates":[[[135.3329622,34.7591723],[135.3330215,34.7592667],[135.3331179,34.7593794],[135.3332216,34.75969],[135.3333217,34.7601133],[135.333381,34.7601528],[135.3335812,34.7600828],[135.3336039,34.7600995],[135.3338764,34.7600103],[135.3339403,34.7600016],[135.3340063,34.7600208],[135.334068,34.760068],[135.3340616,34.7600978],[135.3341276,34.76018],[135.3341744,34.76018],[135.3343107,34.7601327],[135.3343618,34.7600873],[135.3343703,34.7600278],[135.3344661,34.7599701],[135.3345257,34.7598617],[135.3345874,34.7597882],[135.3346513,34.7597392],[135.3346726,34.7597007],[135.3343213,34.7589399],[135.3342639,34.7589504],[135.3342489,34.7588665],[135.3341915,34.7588525],[135.333919,34.758919],[135.3338679,34.7589924],[135.3338658,34.7591131],[135.3337146,34.7591498],[135.3335592,34.7591166],[135.3334102,34.7590169],[135.3332888,34.7589032],[135.33324,34.7589389],[135.333193,34.7589732],[135.3330845,34.7590589],[135.3330951,34.7591218],[135.3330504,34.7591603],[135.3329622,34.7591723]]]}},{"type":"Feature","properties":{"kind":"water","name":"北山池","osm_type":"relation","osm_id":10188050},"geometry":{"type":"MultiPolygon","coordinates":[[[[135.3212441,34.7644125],[135.3213394,34.7644753],[135.3214762,34.7644235],[135.3216518,34.7643001],[135.3217256,34.7641976],[135.321786,34.764061],[135.3218289,34.7640037],[135.3219227,34.7639398],[135.3220099,34.7638561],[135.3220864,34.7637592],[135.3220797,34.7636931],[135.3216599,34.7636875],[135.3216277,34.7637316],[135.3215781,34.7638517],[135.3215204,34.7640258],[135.3214359,34.7641723],[135.3213461,34.7642626],[135.3212737,34.7643299],[135.3212441,34.7644125]]],[[[135.3212374,34.7646714],[135.3209639,34.764451],[135.3208807,34.7645072],[135.3208029,34.7645722],[135.3207251,34.7646306],[135.3206903,34.7646967],[135.3207023,34.7647827],[135.3207399,34.7648322],[135.3208123,34.7648576],[135.3209344,34.7648058],[135.3210255,34.7647573],[135.3211234,34.7647573],[135.3211731,34.7647353],[135.3212374,34.7646714]]],[[[135.3219455,34.7634617],[135.3219563,34.7633658],[135.3220247,34.7632557],[135.322026,34.7631863],[135.3219911,34.7631047],[135.3219938,34.7630684],[135.3220193,34.763021],[135.3216532,34.7628998],[135.3215365,34.7629273],[135.321456,34.7630001],[135.3214426,34.7630838],[135.3214721,34.7631675],[135.3215379,34.7632105],[135.3216317,34.7632149],[135.3217041,34.763194],[135.3217779,34.7631962],[135.3218168,34.7632645],[135.3218061,34.7633449],[135.3217886,34.7634496],[135.3219455,34.7634617]]]]}},{"type":"Feature","properties":{"kind":"water","name":"北山貯水池","osm_type":"way","osm_id":401325875},"geometry":{"type":"Polygon","coordinates":[[[135.3179736,34.7740027],[135.3182841,34.7739466],[135.3183538,34.7739135],[135.3184276,34.7738683],[135.3184886,34.7738182],[135.3185718,34.7737934],[135.3186288,34.7737945],[135.3186817,34.7738199],[135.3187421,34.7738375],[135.318789,34.7738336],[135.3188494,34.773805],[135.3189124,34.7737543],[135.3190572,34.77361],[135.319245,34.7734734],[135.3192651,34.773415],[135.3193496,34.7733776],[135.3194073,34.7733787],[135.3197493,34.7735627],[135.3198177,34.7735781],[135.3199933,34.7735461],[135.3200718,34.7735445],[135.3201087,34.7735048],[135.3200886,34.7734079],[135.3200953,34.7733451],[135.3200718,34.7732944],[135.3200832,34.7732592],[135.3200993,34.7732476],[135.3201898,34.7732134],[135.3202884,34.7732035],[135.3203809,34.7731727],[135.3204869,34.7731771],[135.3205519,34.7731407],[135.3205519,34.773127],[135.3206337,34.7730923],[135.3207088,34.7730961],[135.3207685,34.7731193],[135.3208275,34.7732068],[135.3208624,34.7732223],[135.320906,34.773306],[135.3209361,34.7733291],[135.3210092,34.7733148],[135.3211018,34.7732779],[135.321146,34.7732751],[135.3212171,34.7733308],[135.3212419,34.7733379],[135.3212707,34.7733269],[135.3213351,34.7731931],[135.3213653,34.7731683],[135.3213988,34.7731573],[135.3214511,34.7731556],[135.3215215,34.7731986],[135.3215597,34.773241],[135.3215973,34.773241],[135.3216114,34.7731677],[135.321606,34.773122],[135.3216308,34.773013],[135.321667,34.7729931],[135.3217488,34.7729722],[135.3217864,34.772938],[135.3218058,34.7729028],[135.3218099,34.7728631],[135.3218119,34.7727728],[135.3218809,34.7727304],[135.3219916,34.7727342],[135.3220948,34.7727656],[135.3222571,34.7728312],[135.322302,34.7728708],[135.3223195,34.7729171],[135.3223188,34.7729441],[135.3222974,34.7730047],[135.3223175,34.7730493],[135.3223624,34.7730548],[135.3223879,34.7730983],[135.3223812,34.7731727],[135.322406,34.77323],[135.3224308,34.7732641],[135.3224576,34.7732658],[135.3224898,34.7732465],[135.3225079,34.7732537],[135.3225052,34.7732867],[135.3225267,34.7733115],[135.322532,34.7733743],[135.322467,34.7734872],[135.322414,34.7735313],[135.3223604,34.7736403],[135.3223577,34.7736877],[135.3223839,34.7737477],[135.3223892,34.7738469],[135.3223476,34.7738975],[135.3223309,34.7739444],[135.3223725,34.7740138],[135.3224449,34.7740677],[135.3227185,34.7741575],[135.3229625,34.7742225],[135.3234366,34.7743751],[135.3234681,34.7743459],[135.3234648,34.7742776],[135.3234815,34.7742291],[135.3235593,34.7741674],[135.3236626,34.7741322],[135.3237504,34.7741184],[135.3238349,34.7741515],[135.3238832,34.7741851],[135.3239194,34.7742324],[135.3239154,34.7742671],[135.3239288,34.7743349],[135.3239905,34.7743971],[135.3239952,34.7744191],[135.3240146,34.774428],[135.3246537,34.7743536],[135.3251841,34.7742726],[135.3261289,34.773816],[135.3265104,34.7735985],[135.326497,34.7735511],[135.3265882,34.7735004],[135.326615,34.773453],[135.3265708,34.7733242],[135.326603,34.7732272],[135.3264823,34.7726995],[135.3264031,34.7725629],[135.3263254,34.77252],[135.3256655,34.7722853],[135.3254362,34.7722192],[135.3250111,34.7721774],[135.3246356,34.7721741],[135.3244974,34.7722776],[135.323969,34.7722115],[135.3239221,34.7721058],[135.3234085,34.7720937],[135.3233669,34.7720066],[135.3233548,34.7719119],[135.3232167,34.7717753],[135.3230839,34.771805],[135.3230195,34.7719714],[135.3230316,34.7720903],[135.3217522,34.7720606],[135.3215832,34.7720959],[135.321091,34.7720815],[135.3210454,34.7721168],[135.3210427,34.7721708],[135.3213606,34.772477],[135.3213794,34.772564],[135.3213499,34.7726698],[135.3211943,34.7727414],[135.3210696,34.7728703],[135.321028,34.7728824],[135.3208107,34.772802],[135.3206874,34.7727711],[135.3204258,34.77277],[135.3200436,34.7728714],[135.3198237,34.77291],[135.3197459,34.7729573],[135.3196158,34.7729749],[135.3194576,34.7729133],[135.3194348,34.7729276],[135.3195045,34.7730102],[135.3195394,34.7730708],[135.319471,34.7731115],[135.319188,34.7732481],[135.3190324,34.773377],[135.318895,34.7735202],[135.3187515,34.7736816],[135.3186147,34.7737433],[135.3184564,34.773783],[135.3183505,34.773865],[135.3182895,34.7739041],[135.3181587,34.773935],[135.3179756,34.7739592],[135.3179736,34.7740027]]]}}]}